NORAD_CAT_ID,OBJECT_NAME,OBJECT_TYPE,EPOCH,MEAN_MOTION,ECCENTRICITY,INCLINATION,RA_OF_ASC_NODE,ARG_OF_PERICENTER,MEAN_ANOMALY,BSTAR,MEAN_MOTION_DOT,MEAN_MOTION_DDOT,TLE_LINE0,TLE_LINE1,TLE_LINE2,SEMIMAJOR_AXIS,PERIOD,APOGEE,PERIGEE,DECAYED
53432.0,STARLINK-4557,PAYLOAD,2022-10-20 22:00:00,15.49937658,0.0001386999999999,53.2146,254.1753,92.9327,101.9046,-0.00053539,-0.00030775,0.0,0 STARLINK-4557,1 53432U 22097AW  22293.91667824 -.00030775  00000-0 -53539-3 0  9990,2 53432  53.2146 254.1753 0001387  92.9327 101.9046 15.49937658  1300,6795.045,92.907,417.853,415.968,0.0
53432.0,STARLINK-4557,PAYLOAD,2022-10-21 14:00:01,15.50057711,0.0001187,53.216,250.9876,87.4103,229.3087,-0.012619,-0.00663024,0.0,0 STARLINK-4557,1 53432U 22097AW  22294.58334491 -.00663024  00000-0 -12619-1 0  9996,2 53432  53.2160 250.9876 0001187  87.4103 229.3087 15.50057711 11806,6794.694,92.9,417.366,415.753,0.0
53432.0,STARLINK-4557,PAYLOAD,2022-10-21 22:00:00,15.49646341,9.9e-05,53.2167,249.392,80.1611,297.4048,-0.019861,-0.01018655,0.0,0 STARLINK-4557,1 53432U 22097AW  22294.91667824 -.01018655  00000-0 -19861-1 0  9993,2 53432  53.2167 249.3920 0000990  80.1611 297.4048 15.49646341  1308,6795.897,92.924,418.435,417.089,0.0
53432.0,STARLINK-4557,PAYLOAD,2022-10-22 08:00:01,15.48703558,0.0001309,53.2173,247.404,72.1954,110.4611,-0.0228039999999999,-0.01120419,0.0,0 STARLINK-4557,1 53432U 22097AW  22295.33334491 -.01120419  00000-0 -22804-1 0  9994,2 53432  53.2173 247.4040 0001309  72.1954 110.4611 15.48703558 11925,6798.655,92.981,421.41,419.63,0.0
53432.0,STARLINK-4557,PAYLOAD,2022-10-22 14:00:01,15.48096793,0.0001266,53.2171,246.2107,88.8374,48.1616,-0.023444,-0.0114342,0.0,0 STARLINK-4557,1 53432U 22097AW  22295.58334491 -.01143420  00000-0 -23444-1 0  9999,2 53432  53.2171 246.2107 0001266  88.8374  48.1616 15.48096793  1305,6800.431,93.017,423.157,421.435,0.0
53432.0,STARLINK-4557,PAYLOAD,2022-10-22 22:00:00,15.47286429,0.0001334,53.2169,244.6227,89.9023,105.3626,-0.0241979999999999,-0.01146856,0.0,0 STARLINK-4557,1 53432U 22097AW  22295.91667824 -.01146856  00000-0 -24198-1 0  9998,2 53432  53.2169 244.6227 0001334  89.9023 105.3626 15.47286429  1309,6802.805,93.066,425.578,423.763,0.0
53432.0,STARLINK-4557,PAYLOAD,2022-10-23 08:00:01,15.46265157,0.0001062,53.217,242.6423,99.1092,257.6809,-0.02493,-0.0114076,0.0,0 STARLINK-4557,1 53432U 22097AW  22296.33335648 -.01140760  00000-0 -24930-1 0  9993,2 53432  53.2170 242.6423 0001062  99.1092 257.6809 15.46265157 12078,6805.8,93.128,428.388,426.942,0.0
53432.0,STARLINK-4557,PAYLOAD,2022-10-23 14:00:01,15.45657435,0.0001127,53.2174,241.4528,96.7904,212.0784,-0.0255889999999999,-0.01146071,0.0,0 STARLINK-4557,1 53432U 22097AW  22296.58334491 -.01146071  00000-0 -25589-1 0  9997,2 53432  53.2174 241.4528 0001127  96.7904 212.0784 15.45657435  1306,6807.584,93.164,430.216,428.682,0.0
53432.0,STARLINK-4557,PAYLOAD,2022-10-23 22:00:00,15.44857547,0.0001135,53.2168,239.871,86.1797,278.0161,-0.026749,-0.01163809,0.0,0 STARLINK-4557,1 53432U 22097AW  22296.91667824 -.01163809  00000-0 -26749-1 0  9990,2 53432  53.2168 239.8710 0001135  86.1797 278.0161 15.44857547  1301,6809.934,93.212,432.572,431.026,0.0
53432.0,STARLINK-4557,PAYLOAD,2022-10-24 06:00:00,15.44037553,0.0001163,53.2172,238.293,88.516,330.0382,-0.027288,-0.01155193,0.0,0 STARLINK-4557,1 53432U 22097AW  22297.25001157 -.01155193  00000-0 -27288-1 0  9995,2 53432  53.2172 238.2930 0001163  88.5160 330.0382 15.44037553 12228,6812.345,93.262,435.002,433.417,0.0
53432.0,STARLINK-4557,PAYLOAD,2022-10-24 14:00:01,15.43213772,0.0001203,53.2174,236.7128,85.5587,26.3805,-0.027692,-0.01141173,0.0,0 STARLINK-4557,1 53432U 22097AW  22297.58334491 -.01141173  00000-0 -27692-1 0  9993,2 53432  53.2174 236.7128 0001203  85.5587  26.3805 15.43213772  1307,6814.769,93.312,437.453,435.814,0.0
53432.0,STARLINK-4557,PAYLOAD,2022-10-24 22:00:00,15.42420011,0.0001378,53.2171,235.1368,76.3594,87.9705,-0.029174,-0.01167882,0.0,0 STARLINK-4557,1 53432U 22097AW  22297.91667824 -.01167882  00000-0 -29174-1 0  9991,2 53432  53.2171 235.1368 0001378  76.3594  87.9705 15.42420011  1309,6817.106,93.36,439.911,438.032,0.0
53432.0,STARLINK-4557,PAYLOAD,2022-10-25 06:00:00,15.41606468,0.0001330999999999,53.2174,233.5645,89.0661,126.6856,-0.029975,-0.01167536,0.0,0 STARLINK-4557,1 53432U 22097AW  22298.25001157 -.01167536  00000-0 -29975-1 0  9995,2 53432  53.2174 233.5645 0001331  89.0661 126.6856 15.41606468 12375,6819.505,93.409,442.277,440.462,0.0
53432.0,STARLINK-4557,PAYLOAD,2022-10-25 14:00:01,15.40772729,0.0001213,53.2176,231.9898,96.8381,169.3703,-0.03006,-0.01141037,0.0,0 STARLINK-4557,1 53432U 22097AW  22298.58334491 -.01141037  00000-0 -30060-1 0  9996,2 53432  53.2176 231.9898 0001213  96.8381 169.3703 15.40772729  1302,6821.964,93.46,444.657,443.002,0.0
53432.0,STARLINK-4557,PAYLOAD,2022-10-25 22:00:01,15.39960706,0.0001153,53.2174,230.4198,89.0907,226.6478,-0.030942,-0.01142988,0.0,0 STARLINK-4557,1 53432U 22097AW  22298.91668981 -.01142988  00000-0 -30942-1 0  9992,2 53432  53.2174 230.4198 0001153  89.0907 226.6478 15.39960706  1306,6824.361999999999,93.509,447.014,445.441,0.0
53432.0,STARLINK-4557,PAYLOAD,2022-10-26 08:00:01,15.38941098,0.0001196,53.2171,228.4606,88.5914,17.6065,-0.031873,-0.01138724,0.0,0 STARLINK-4557,1 53432U 22097AW  22299.33335648 -.01138724  00000-0 -31873-1 0  9997,2 53432  53.2171 228.4606 0001196  88.5914  17.6065 15.38941098 12543,6827.376,93.571,450.0580000000001,448.425,0.0
53432.0,STARLINK-4557,PAYLOAD,2022-10-26 14:00:01,15.38330534,0.0001087,53.2175,227.2843,97.5733,314.1038,-0.03253,-0.0113902,0.0,0 STARLINK-4557,1 53432U 22097AW  22299.58334491 -.01139020  00000-0 -32530-1 0  9990,2 53432  53.2175 227.2843 0001087  97.5733 314.1038 15.38330534  1309,6829.183000000001,93.608,451.79,450.305,0.0
53432.0,STARLINK-4557,PAYLOAD,2022-10-26 22:00:00,15.37518526,0.000123,53.2176,225.7203,75.34899999999998,22.8608,-0.033487,-0.01141552,0.0,0 STARLINK-4557,1 53432U 22097AW  22299.91667824 -.01141552  00000-0 -33487-1 0  9991,2 53432  53.2176 225.7203 0001230  75.3490  22.8608 15.37518526  1301,6831.587,93.657,454.292,452.612,0.0
53432.0,STARLINK-4557,PAYLOAD,2022-10-27 08:00:01,15.36507301,0.0001211999999999,53.2166,223.7692,91.5447,153.4527,-0.034851,-0.01148871,0.0,0 STARLINK-4557,1 53432U 22097AW  22300.33334491 -.01148871  00000-0 -34851-1 0  9998,2 53432  53.2166 223.7692 0001212  91.5447 153.4527 15.36507301 12695,6834.584,93.719,457.277,455.621,0.0
53432.0,STARLINK-4557,PAYLOAD,2022-10-27 14:00:01,15.35888453,0.0001313,53.2174,222.5964,95.2219,93.1869,-0.035144,-0.01136705,0.0,0 STARLINK-4557,1 53432U 22097AW  22300.58335648 -.01136705  00000-0 -35144-1 0  9999,2 53432  53.2174 222.5964 0001313  95.2219  93.1869 15.35888453  1307,6836.42,93.757,459.182,457.387,0.0
53432.0,STARLINK-4557,PAYLOAD,2022-10-27 22:00:00,15.35075462,0.0001345,53.2176,221.0384,97.3799,134.5644,-0.036116,-0.01137829,0.0,0 STARLINK-4557,1 53432U 22097AW  22300.91667824 -.01137829  00000-0 -36116-1 0  9998,2 53432  53.2176 221.0384 0001345  97.3799 134.5644 15.35075462  1309,6838.833000000001,93.806,461.61800000000005,459.779,0.0
53432.0,STARLINK-4557,PAYLOAD,2022-10-28 08:00:01,15.34058477,0.0001041,53.217,219.0937,93.3723,281.7604,-0.037322,-0.01138026,0.0,0 STARLINK-4557,1 53432U 22097AW  22301.33335648 -.01138026  00000-0 -37322-1 0  9991,2 53432  53.2170 219.0937 0001041  93.3723 281.7604 15.34058477 12859,6841.856,93.869,464.4330000000001,463.008,0.0
53432.0,STARLINK-4557,PAYLOAD,2022-10-28 14:00:01,15.33451637,0.0001165,53.2172,217.9268,97.8866,218.3866,-0.038225,-0.01142805,0.0,0 STARLINK-4557,1 53432U 22097AW  22301.58335648 -.01142805  00000-0 -38225-1 0  9991,2 53432  53.2172 217.9268 0001165  97.8866 218.3866 15.33451637  1307,6843.66,93.906,466.323,464.728,0.0
53432.0,STARLINK-4557,PAYLOAD,2022-10-28 22:00:01,15.32642944,0.0001200999999999,53.2171,216.374,95.1847,261.7527,-0.0394959999999999,-0.01150186,0.0,0 STARLINK-4557,1 53432U 22097AW  22301.91668981 -.01150186  00000-0 -39496-1 0  9999,2 53432  53.2171 216.3740 0001201  95.1847 261.7527 15.32642944  1303,6846.068,93.955,468.755,467.11,0.0
53432.0,STARLINK-4557,PAYLOAD,2022-10-29 08:00:01,15.31617183,0.0001274999999999,53.2172,214.4358,84.2079,52.1275,-0.040292,-0.01137241,0.0,0 STARLINK-4557,1 53432U 22097AW  22302.33334491 -.01137241  00000-0 -40292-1 0  9995,2 53432  53.2172 214.4358 0001275  84.2079  52.1275 15.31617183 13003,6849.124,94.018,471.862,470.116,0.0
53432.0,STARLINK-4557,PAYLOAD,2022-10-29 12:00:00,15.31211569,0.0001133,53.2175,213.6603,98.3378,237.3533,-0.040918,-0.01139992,0.0,0 STARLINK-4557,1 53432U 22097AW  22302.50001157 -.01139992  00000-0 -40918-1 0  9994,2 53432  53.2175 213.6603 0001133  98.3378 237.3533 15.31211569  1303,6850.333000000001,94.043,472.975,471.422,0.0
53432.0,STARLINK-4557,PAYLOAD,2022-10-29 22:00:01,15.30205995,0.0001293,53.2169,211.7268,87.46799999999998,25.6,-0.04287,-0.011559,0.0,0 STARLINK-4557,1 53432U 22097AW  22302.91668981 -.01155900  00000-0 -42870-1 0  9999,2 53432  53.2169 211.7268 0001293  87.4680  25.6000 15.30205995  1306,6853.334,94.105,476.085,474.31300000000016,0.0
53432.0,STARLINK-4557,PAYLOAD,2022-10-30 00:00:00,15.29986289,0.0001403,53.2172,211.3406,90.4537,121.8382,-0.0422149999999999,-0.011327,0.0,0 STARLINK-4557,1 53432U 22097AW  22303.00001157 -.01132700  00000-0 -42215-1 0  9992,2 53432  53.2172 211.3406 0001403  90.4537 121.8382 15.29986289 13101,6853.99,94.118,476.817,474.894,0.0
53432.0,STARLINK-4557,PAYLOAD,2022-10-30 14:00:01,15.28563398,0.0001357,53.2171,208.6374,93.1961,92.348,-0.0441709999999999,-0.01133922,0.0,0 STARLINK-4557,1 53432U 22097AW  22303.58334491 -.01133922  00000-0 -44171-1 0  9995,2 53432  53.2171 208.6374 0001357  93.1961  92.3480 15.28563398  1303,6858.243,94.206,481.039,479.177,0.0
